{
  "type": "FeatureCollection",
  "name": "roadside_station_diff",
  "crs": {
    "type": "name",
    "properties": {
      "name": "urn:ogc:def:crs:EPSG::4019"
    }
  },
  "features": [
    {
      "type": "Feature",
      "properties": {
        "P35_001": 36.3228561,
        "P35_002": 139.9934159,
        "P35_003": "茨城県",
        "P35_004": "筑西市",
        "P35_005": "12102",
        "P35_006": "グランテラス筑西"
      },
      "geometry": {
        "type": "Point",
        "coordinates": [139.9934159, 36.3228561]
      }
    },
    {
      "type": "Feature",
      "properties": {
        "P35_001": 36.356026,
        "P35_002": 140.2741238,
        "P35_003": "茨城県",
        "P35_004": "笠間市",
        "P35_005": "12102",
        "P35_006": "かさま"
      },
      "geometry": {
        "type": "Point",
        "coordinates": [140.2741238, 36.356026]
      }
    },
    {
      "type": "Feature",
      "properties": {
        "P35_001": 36.0834856,
        "P35_002": 139.985314,
        "P35_003": "茨城県",
        "P35_004": "常総市",
        "P35_005": "12102",
        "P35_006": "常総"
      },
      "geometry": {
        "type": "Point",
        "coordinates": [139.985314, 36.0834856]
      }
    },
    {
      "type": "Feature",
      "properties": {
        "P35_001": 36.6327,
        "P35_002": 140.053294,
        "P35_003": "栃木県",
        "P35_004": "塩谷郡高根沢町",
        "P35_005": "12102",
        "P35_006": "たかねざわ 元気あっぷむら"
      },
      "geometry": {
        "type": "Point",
        "coordinates": [140.053294, 36.6327]
      }
    },
    {
      "type": "Feature",
      "properties": {
        "P35_001": 36.960104,
        "P35_002": 138.448059,
        "P35_003": "長野県",
        "P35_004": "下高井郡野沢温泉村",
        "P35_005": "12102",
        "P35_006": "野沢温泉"
      },
      "geometry": {
        "type": "Point",
        "coordinates": [138.448059, 36.960104]
      }
    },
    {
      "type": "Feature",
      "properties": {
        "P35_001": 35.326109,
        "P35_002": 139.118491,
        "P35_003": "神奈川県",
        "P35_004": "南足柄市",
        "P35_005": "12102",
        "P35_006": "足柄・金太郎のふるさと"
      },
      "geometry": {
        "type": "Point",
        "coordinates": [139.118491, 35.326109]
      }
    },
    {
      "type": "Feature",
      "properties": {
        "P35_001": 36.051327,
        "P35_002": 138.257668,
        "P35_003": "長野県",
        "P35_004": "茅野市",
        "P35_005": "12102",
        "P35_006": "ビーナスライン蓼科湖"
      },
      "geometry": {
        "type": "Point",
        "coordinates": [138.257668, 36.051327]
      }
    },
    {
      "type": "Feature",
      "properties": {
        "P35_001": 36.439656,
        "P35_002": 139.052828,
        "P35_003": "群馬県",
        "P35_004": "前橋市",
        "P35_005": "12102",
        "P35_006": "まえばし赤城"
      },
      "geometry": {
        "type": "Point",
        "coordinates": [139.052828, 36.439656]
      }
    },
    {
      "type": "Feature",
      "properties": {
        "P35_001": 36.205722,
        "P35_002": 138.21375,
        "P35_003": "長野県",
        "P35_004": "小県郡長和町",
        "P35_005": "12102",
        "P35_006": "和田宿ステーション"
      },
      "geometry": {
        "type": "Point",
        "coordinates": [138.21375, 36.205722]
      }
    },
    {
      "type": "Feature",
      "properties": {
        "P35_001": 35.000779,
        "P35_002": 139.906745,
        "P35_003": "千葉県",
        "P35_004": "館山市",
        "P35_005": "12102",
        "P35_006": "グリーンファーム館山"
      },
      "geometry": {
        "type": "Point",
        "coordinates": [139.906745, 35.000779]
      }
    },
    {
      "type": "Feature",
      "properties": {
        "P35_001": 35.992986,
        "P35_002": 139.526949,
        "P35_003": "埼玉県",
        "P35_004": "桶川市",
        "P35_005": "12102",
        "P35_006": "べに花の郷おけがわ"
      },
      "geometry": {
        "type": "Point",
        "coordinates": [139.526949, 35.992986]
      }
    },
    {
      "type": "Feature",
      "properties": {
        "P35_001": 35.487969,
        "P35_002": 138.450385,
        "P35_003": "山梨県",
        "P35_004": "南巨摩郡身延町",
        "P35_005": "12102",
        "P35_006": "にしじま和紙の里 かみすきパーク"
      },
      "geometry": {
        "type": "Point",
        "coordinates": [138.450385, 35.487969]
      }
    },
    {
      "type": "Feature",
      "properties": {
        "P35_001": 35.320272,
        "P35_002": 139.378542,
        "P35_003": "神奈川県",
        "P35_004": "茅ヶ崎市",
        "P35_005": "12102",
        "P35_006": "湘南ちがさき"
      },
      "geometry": {
        "type": "Point",
        "coordinates": [139.378542, 35.320272]
      }
    },
        {
      "type": "Feature",
      "properties": {
        "P35_001": 36.1286,
        "P35_002": 138.4654,
        "P35_003": "長野県",
        "P35_004": "南佐久郡佐久穂町",
        "P35_005": "12102",
        "P35_006": "八千穂高原"
      },
      "geometry": {
        "type": "Point",
        "coordinates": [138.4654, 36.1286]
      }
    }
  ]
}
